OCO 2                   
1 40059U 14035A   26065.83757554  .00000826  00000+0  19349-3 0  9998
2 40059  98.2093   8.7258 0001194  91.5554 268.5781 14.57090191621143
BRITE-PL2 (HEWELIUSZ)   
1 40119U 14049B   26065.25774360  .00003850  00000+0  36435-3 0  9995
2 40119  97.8984 176.5682 0015608  91.8548 268.4459 14.94161298626076
MMS 1                   
1 40482U 15011A   26065.91668981 -.00001930  00000+0  00000+0 0  9995
2 40482  70.7971 350.1930 8417401 165.2374 307.0363  0.28284285  1344
MMS 2                   
1 40483U 15011B   26065.91668981 -.00001930  00000+0  00000+0 0  9996
2 40483  70.7974 350.1951 8418132 165.2435 307.0200  0.28284286  1342
MMS 3                   
1 40484U 15011C   26065.91668981 -.00001931  00000+0  00000+0 0  9998
2 40484  70.7990 350.1996 8417611 165.2342 307.0442  0.28276142  1348
MMS 4                   
1 40485U 15011D   26065.91668981 -.00001930  00000+0  00000+0 0  9998
2 40485  70.7978 350.1949 8416918 165.2449 307.0140  0.28284273  1349
ASTROSAT                
1 40930U 15052A   26065.55989096  .00002590  00000+0  23444-3 0  9994
2 40930   5.9957 173.9588 0008021   5.0302 354.9906 14.82288976564573
DAMPE                   
1 41173U 15078A   26065.85827288  .00001417  00000+0  50612-4 0  9994
2 41173  97.4582  70.8334 0013879  80.3372 279.9436 15.30485862568897
PISAT                   
1 41784U 16059B   26065.82771350  .00001573  00000+0  27606-3 0  9996
2 41784  97.8191  70.6936 0029316 169.7599 190.4210 14.68765734504714
HXMT (HUIYAN)           
1 42758U 17034A   26065.88140350  .00007761  00000+0  38737-3 0  9990
2 42758  43.0152  32.2848 0032654 218.8316 141.0185 15.17415521482117
FLYING LAPTOP           
1 42831U 17042G   26065.84385751  .00005714  00000+0  45626-3 0  9994
2 42831  97.4265 225.6450 0018910 104.6059 255.7264 15.00497012471104
ZHANGHENG 1-01 (CSES-1) 
1 43194U 18015C   26065.89211774  .00012384  00000+0  56038-3 0  9996
2 43194  97.6751 229.5717 0014832 254.9639 104.9955 15.20956558449092
SALSAT                  
1 46495U 20068K   26065.39904136  .00011274  00000+0  41380-3 0  9991
2 46495  97.8855  62.3380 0008503 310.6744  49.3754 15.28102969299651
IXPE                    
1 49954U 21121A   26065.83334490  .00014693  00000+0  84029-3 0  9999
2 49954   0.2307  11.1130 0007600 331.3037 134.1095 15.09168139  5365
